NORAD_CAT_ID,OBJECT_NAME,OBJECT_TYPE,EPOCH,MEAN_MOTION,ECCENTRICITY,INCLINATION,RA_OF_ASC_NODE,ARG_OF_PERICENTER,MEAN_ANOMALY,BSTAR,MEAN_MOTION_DOT,MEAN_MOTION_DDOT,TLE_LINE0,TLE_LINE1,TLE_LINE2,SEMIMAJOR_AXIS,PERIOD,APOGEE,PERIGEE,DECAYED
52700.0,STARLINK-4034,PAYLOAD,2024-04-21 20:13:39,15.08837049,0.0001079,53.2183,352.139,117.486,242.6242,-0.00023733,-4.063e-05,0.0,0 STARLINK-4034,1 52700U 22053AW  24112.84282362 -.00004063  00000-0 -23733-3 0  9997,2 52700  53.2183 352.1390 0001079 117.4860 242.6242 15.08837049106997,6917.889,95.438,540.501,539.008,0.0
52700.0,STARLINK-4034,PAYLOAD,2024-04-21 21:49:02,15.0885963,0.0001954,53.2197,351.8411,125.6797,234.4377,9.9261e-05,1.293e-05,0.0,0 STARLINK-4034,1 52700U 22053AW  24112.90905298  .00001293  00000-0  99261-4 0  9994,2 52700  53.2197 351.8411 0001954 125.6797 234.4377 15.08859630107410,6917.82,95.436,541.037,538.334,0.0
52700.0,STARLINK-4034,PAYLOAD,2024-04-22 00:59:48,15.08863049,0.0001461,53.2187,351.2447,107.0649,253.0503,0.00017493,2.499e-05,0.0,0 STARLINK-4034,1 52700U 22053AW  24113.04153170  .00002499  00000-0  17493-3 0  9999,2 52700  53.2187 351.2447 0001461 107.0649 253.0503 15.08863049107029,6917.81,95.436,540.686,538.664,0.0
52700.0,STARLINK-4034,PAYLOAD,2024-04-22 20:04:28,15.08828138,0.0001807,53.2185,347.679,121.527,238.5899,0.00035099,5.301e-05,0.0,0 STARLINK-4034,1 52700U 22053AW  24113.83643613  .00005301  00000-0  35099-3 0  9999,2 52700  53.2185 347.6790 0001807 121.5270 238.5899 15.08828138107141,6917.917,95.438,541.032,538.532,0.0
52700.0,STARLINK-4034,PAYLOAD,2024-04-22 21:39:51,15.08823744,0.000149,53.218,347.3851,90.1132,270.0031,0.00028011,4.171e-05,0.0,0 STARLINK-4034,1 52700U 22053AW  24113.90268055  .00004171  00000-0  28011-3 0  9990,2 52700  53.2180 347.3851 0001490  90.1132 270.0031 15.08823744107560,6917.93,95.439,540.826,538.764,0.0
52700.0,STARLINK-4034,PAYLOAD,2024-04-23 00:50:37,15.08838612,0.000129,53.218,346.7862,112.6662,247.4467,0.00041778,6.367e-05,0.0,0 STARLINK-4034,1 52700U 22053AW  24114.03515273  .00006367  00000-0  41778-3 0  9996,2 52700  53.2180 346.7862 0001290 112.6662 247.4467 15.08838612107179,6917.885,95.438,540.642,538.857,0.0
52700.0,STARLINK-4034,PAYLOAD,2024-04-23 21:30:37,15.0884941,0.0001472,53.2177,342.9196,99.1589,260.957,-1.1367e-05,-4.69e-06,0.0,0 STARLINK-4034,1 52700U 22053AW  24114.89626678 -.00000469  00000-0 -11367-4 0  9993,2 52700  53.2177 342.9196 0001472  99.1589 260.9570 15.08849410107715,6917.852,95.437,540.735,538.698,0.0
52700.0,STARLINK-4034,PAYLOAD,2024-04-24 00:41:22,15.08867551,0.000119,53.2181,342.3238,106.554,253.5583,0.00027496,4.094e-05,0.0,0 STARLINK-4034,1 52700U 22053AW  24115.02873731  .00004094  00000-0  27496-3 0  9998,2 52700  53.2181 342.3238 0001190 106.5540 253.5583 15.08867551107323,6917.796,95.436,540.484,538.838,0.0
52700.0,STARLINK-4034,PAYLOAD,2024-04-24 21:21:24,15.08841568,0.0001205,53.2177,338.4598,91.5244,268.5886,6.7675e-06,-1.8e-06,0.0,0 STARLINK-4034,1 52700U 22053AW  24115.88987139 -.00000180  00000-0  67675-5 0  9998,2 52700  53.2177 338.4598 0001205  91.5244 268.5886 15.08841568107450,6917.876,95.437,540.574,538.907,0.0
52700.0,STARLINK-4034,PAYLOAD,2024-04-25 21:12:11,15.08848071,0.0001316,53.2191,333.9935,93.5617,266.5525,-3.3986e-05,-8.29e-06,0.0,0 STARLINK-4034,1 52700U 22053AW  24116.88346836 -.00000829  00000-0 -33986-4 0  9990,2 52700  53.2191 333.9935 0001316  93.5617 266.5525 15.08848071108017,6917.856,95.437,540.631,538.81,0.0
52700.0,STARLINK-4034,PAYLOAD,2024-04-26 00:22:57,15.08847678,0.0001369,53.2192,333.3987,107.4633,252.6508,9.0618e-06,-1.44e-06,0.0,0 STARLINK-4034,1 52700U 22053AW  24117.01594782 -.00000144  00000-0  90618-5 0  9996,2 52700  53.2192 333.3987 0001369 107.4633 252.6508 15.08847678107625,6917.857,95.437,540.669,538.775,0.0
52700.0,STARLINK-4034,PAYLOAD,2024-04-27 06:35:17,15.08848061,0.000132,53.2177,327.7563,80.1069,280.0072,0.00013607,1.879e-05,0.0,0 STARLINK-4034,1 52700U 22053AW  24118.27450767  .00001879  00000-0  13607-3 0  9995,2 52700  53.2177 327.7563 0001320  80.1069 280.0072 15.08848061107811,6917.856,95.437,540.634,538.808,0.0
52700.0,STARLINK-4034,PAYLOAD,2024-04-27 20:53:46,15.08841557,0.0001314,53.2193,325.0843,109.4705,250.643,1.9903e-05,2.9e-07,0.0,0 STARLINK-4034,1 52700U 22053AW  24118.87067329  .00000029  00000-0  19903-4 0  9991,2 52700  53.2193 325.0843 0001314 109.4705 250.6430 15.08841557107900,6917.876,95.437,540.65,538.832,0.0
52700.0,STARLINK-4034,PAYLOAD,2024-04-27 22:29:08,15.08847745,0.0001209,53.2192,324.7809,82.3332,277.7798,0.00014046,1.949e-05,0.0,0 STARLINK-4034,1 52700U 22053AW  24118.93690615  .00001949  00000-0  14046-3 0  9992,2 52700  53.2192 324.7809 0001209  82.3332 277.7798 15.08847745108324,6917.857,95.437,540.558,538.885,0.0
52700.0,STARLINK-4034,PAYLOAD,2024-04-28 12:47:38,15.0882945,0.0001287,53.2183,322.1063,87.1718,272.9421,5.5491e-05,5.95e-06,0.0,0 STARLINK-4034,1 52700U 22053AW  24119.53308081  .00000595  00000-0  55491-4 0  9998,2 52700  53.2183 322.1063 0001287  87.1718 272.9421 15.08829450108003,6917.913,95.438,540.668,538.887,0.0
52700.0,STARLINK-4034,PAYLOAD,2024-04-28 14:23:01,15.08834462,0.0001193,53.2193,321.8112,97.5105,262.6022,-3.8746e-05,-9.04e-06,0.0,0 STARLINK-4034,1 52700U 22053AW  24119.59932067 -.00000904  00000-0 -38746-4 0  9991,2 52700  53.2193 321.8112 0001193  97.5105 262.6022 15.08834462108424,6917.897,95.438,540.588,538.937,0.0
52700.0,STARLINK-4034,PAYLOAD,2024-04-28 20:44:33,15.08840479,0.00013,53.2194,320.6213,93.7236,266.3905,-6.941e-07,-2.99e-06,0.0,0 STARLINK-4034,1 52700U 22053AW  24119.86427586 -.00000299  00000-0 -69410-6 0  9997,2 52700  53.2194 320.6213 0001300  93.7236 266.3905 15.08840479108052,6917.879,95.438,540.643,538.845,0.0
52700.0,STARLINK-4034,PAYLOAD,2024-04-28 22:19:56,15.08841793,0.0001339,53.2196,320.3238,94.5726,265.5419,6.9916e-06,-1.77e-06,0.0,0 STARLINK-4034,1 52700U 22053AW  24119.93051468 -.00000177  00000-0  69916-5 0  9991,2 52700  53.2196 320.3238 0001339  94.5726 265.5419 15.08841793108470,6917.875,95.437,540.666,538.814,0.0
52700.0,STARLINK-4034,PAYLOAD,2024-04-28 23:55:19,15.08841864,0.0001343,53.2197,320.0264,93.5421,266.5725,5.8533e-06,-1.95e-06,0.0,0 STARLINK-4034,1 52700U 22053AW  24119.99675457 -.00000195  00000-0  58533-5 0  9990,2 52700  53.2197 320.0264 0001343  93.5421 266.5725 15.08841864108484,6917.875,95.437,540.669,538.811,0.0
52700.0,STARLINK-4034,PAYLOAD,2024-04-29 20:35:20,15.08841391,0.0001225,53.2182,316.1568,76.9057,283.2072,-2.5645e-06,-3.29e-06,0.0,0 STARLINK-4034,1 52700U 22053AW  24120.85787697 -.00000329  00000-0 -25645-5 0  9995,2 52700  53.2182 316.1568 0001225  76.9057 283.2072 15.08841391108611,6917.876,95.437,540.589,538.894,0.0
52700.0,STARLINK-4034,PAYLOAD,2024-04-30 06:07:39,15.08846273,0.0001189,53.2177,314.3718,79.1154,280.9972,-1.488e-05,-5.25e-06,0.0,0 STARLINK-4034,1 52700U 22053AW  24121.25531321 -.00000525  00000-0 -14880-4 0  9997,2 52700  53.2177 314.3718 0001189  79.1154 280.9972 15.08846273108262,6917.861,95.437,540.549,538.904,0.0
52700.0,STARLINK-4034,PAYLOAD,2024-04-30 20:26:05,15.08865973,9.94e-05,53.219,311.6965,84.9997,275.1109,0.00025329,3.748e-05,0.0,0 STARLINK-4034,1 52700U 22053AW  24121.85145296  .00003748  00000-0  25329-3 0  9992,2 52700  53.2190 311.6965 0000994  84.9997 275.1109 15.08865973108359,6917.801,95.436,540.354,538.978,0.0
52700.0,STARLINK-4034,PAYLOAD,2024-04-30 22:01:31,15.08833756,0.0001418,53.2193,311.3996,72.0951,288.0196,-1.9777e-05,-6.03e-06,0.0,0 STARLINK-4034,1 52700U 22053AW  24121.91772142 -.00000603  00000-0 -19777-4 0  9995,2 52700  53.2193 311.3996 0001418  72.0951 288.0196 15.08833756108772,6917.899,95.438,540.745,538.784,0.0
52700.0,STARLINK-4034,PAYLOAD,2024-05-01 12:19:59,15.08833378,0.0001404,53.2203,308.7239,65.5945,294.5194,2.8817e-05,1.71e-06,0.0,0 STARLINK-4034,1 52700U 22053AW  24122.51388175  .00000171  00000-0  28817-4 0  9994,2 52700  53.2203 308.7239 0001404  65.5945 294.5194 15.08833378108869,6917.901,95.438,540.737,538.794,0.0
52700.0,STARLINK-4034,PAYLOAD,2024-05-01 18:41:31,15.08845232,0.000105,53.2175,307.5365,72.2428,287.8679,4.0926e-05,3.64e-06,0.0,0 STARLINK-4034,1 52700U 22053AW  24122.77883236  .00000364  00000-0  40926-4 0  9999,2 52700  53.2175 307.5365 0001050  72.2428 287.8679 15.08845232108496,6917.864,95.437,540.456,539.003,0.0
52700.0,STARLINK-4034,PAYLOAD,2024-05-01 21:52:17,15.08848777,0.0001266,53.2173,306.943,67.0067,293.1058,6.9674e-05,8.21e-06,0.0,0 STARLINK-4034,1 52700U 22053AW  24122.91130916  .00000821  00000-0  69674-4 0  9994,2 52700  53.2173 306.9430 0001266  67.0067 293.1058 15.08848777108926,6917.854,95.437,540.594,538.843,0.0
52700.0,STARLINK-4034,PAYLOAD,2024-05-02 12:10:45,15.088391,0.0001259,53.2159,304.2658,72.1464,287.9665,-1.698e-05,-5.58e-06,0.0,0 STARLINK-4034,1 52700U 22053AW  24123.50747624 -.00000558  00000-0 -16980-4 0  9991,2 52700  53.2159 304.2658 0001259  72.1464 287.9665 15.08839100108603,6917.883,95.438,540.619,538.877,0.0
52700.0,STARLINK-4034,PAYLOAD,2024-05-02 18:32:18,15.08855611,0.000121,53.2186,303.0753,92.7221,267.3909,-0.00015972,-2.83e-05,0.0,0 STARLINK-4034,1 52700U 22053AW  24123.77243094 -.00002830  00000-0 -15972-3 0  9996,2 52700  53.2186 303.0753 0001210  92.7221 267.3909 15.08855611108644,6917.833,95.437,540.535,538.861,0.0
52700.0,STARLINK-4034,PAYLOAD,2024-05-03 15:12:18,15.0884587,0.0001304,53.2172,299.209,80.6254,279.4885,3.2948e-05,2.37e-06,0.0,0 STARLINK-4034,1 52700U 22053AW  24124.63354778  .00000237  00000-0  32948-4 0  9994,2 52700  53.2172 299.2090 0001304  80.6254 279.4885 15.08845870109188,6917.862,95.437,540.63,538.825,0.0
52700.0,STARLINK-4034,PAYLOAD,2024-05-03 16:47:41,15.0884576,0.0001291,53.2183,298.9119,81.9734,278.1405,5.1998e-05,5.4e-06,0.0,0 STARLINK-4034,1 52700U 22053AW  24124.69978698  .00000540  00000-0  51998-4 0  9996,2 52700  53.2183 298.9119 0001291  81.9734 278.1405 15.08845760109193,6917.863,95.437,540.621,538.835,0.0
